[{"OBJECT_NAME":"GAOFEN-5 01","OBJECT_ID":"2018-043A","EPOCH":"2026-03-09T22:22:27.309792","MEAN_MOTION":14.60523795,"ECCENTRICITY":0.00026321,"INCLINATION":98.4468,"RA_OF_ASC_NODE":38.4968,"ARG_OF_PERICENTER":51.5893,"MEAN_ANOMALY":308.5542,"EPHEMERIS_TYPE":0,"CLASSIFICATION_TYPE":"U","NORAD_CAT_ID":43461,"ELEMENT_SET_NO":999,"REV_AT_EPOCH":41720,"BSTAR":0.00013017918,"MEAN_MOTION_DOT":5.83e-6,"MEAN_MOTION_DDOT":0},{"OBJECT_NAME":"UNKNOWN","OBJECT_ID":"","EPOCH":"2026-02-08T08:21:58.574304","MEAN_MOTION":14.63453892,"ECCENTRICITY":0.0030195,"INCLINATION":100.2708,"RA_OF_ASC_NODE":233.5291,"ARG_OF_PERICENTER":112.3966,"MEAN_ANOMALY":248.0433,"EPHEMERIS_TYPE":0,"CLASSIFICATION_TYPE":"U","NORAD_CAT_ID":87650,"ELEMENT_SET_NO":999,"REV_AT_EPOCH":8818,"BSTAR":0.0025279,"MEAN_MOTION_DOT":0.00013131,"MEAN_MOTION_DDOT":0}]
